NORAD_CAT_ID,OBJECT_NAME,OBJECT_TYPE,EPOCH,MEAN_MOTION,ECCENTRICITY,INCLINATION,RA_OF_ASC_NODE,ARG_OF_PERICENTER,MEAN_ANOMALY,BSTAR,MEAN_MOTION_DOT,MEAN_MOTION_DDOT,TLE_LINE0,TLE_LINE1,TLE_LINE2,SEMIMAJOR_AXIS,PERIOD,APOGEE,PERIGEE,DECAYED
53403.0,STARLINK-4507,PAYLOAD,2024-05-22 03:18:53,15.08852442,0.0001251,53.2147,191.842,97.1129,263.0006,2.6716e-05,1.37e-06,0.0,0 STARLINK-4507,1 53403U 22097R   24143.13811927  .00000137  00000-0  26716-4 0  9998,2 53403  53.2147 191.8420 0001251  97.1129 263.0006 15.08852442 98904,6917.842,95.437,540.573,538.842,0.0
53403.0,STARLINK-4507,PAYLOAD,2024-05-22 09:40:25,15.08854161,0.0001258,53.2156,190.6526,96.7699,263.3437,-7.8412e-05,-1.536e-05,0.0,0 STARLINK-4507,1 53403U 22097R   24143.40307848 -.00001536  00000-0 -78412-4 0  9996,2 53403  53.2156 190.6526 0001258  96.7699 263.3437 15.08854161 99432,6917.837,95.437,540.572,538.832,0.0
53403.0,STARLINK-4507,PAYLOAD,2024-05-23 09:31:13,15.08841135,0.000136,53.2156,186.1926,101.3927,258.7218,7.8772e-05,9.66e-06,0.0,0 STARLINK-4507,1 53403U 22097R   24144.39668218  .00000966  00000-0  78772-4 0  9999,2 53403  53.2156 186.1926 0001360 101.3927 258.7218 15.08841135 99091,6917.877,95.437,540.683,538.801,0.0
53403.0,STARLINK-4507,PAYLOAD,2024-05-24 09:21:59,15.08848863,0.0001416,53.2146,181.7326,88.1495,271.966,0.00017494,2.498e-05,0.0,0 STARLINK-4507,1 53403U 22097R   24145.39027654  .00002498  00000-0  17494-3 0  9998,2 53403  53.2146 181.7326 0001416  88.1495 271.9660 15.08848863 99733,6917.853,95.437,540.698,538.739,0.0
53403.0,STARLINK-4507,PAYLOAD,2024-05-24 18:54:17,15.08857079,0.0001237,53.214,179.947,87.2945,272.8189,0.00024718,3.65e-05,0.0,0 STARLINK-4507,1 53403U 22097R   24145.78770823  .00003650  00000-0  24718-3 0  9992,2 53403  53.2140 179.9470 0001237  87.2945 272.8189 15.08857079 99305,6917.828,95.436,540.549,538.837,0.0
53403.0,STARLINK-4507,PAYLOAD,2024-05-25 02:51:14,15.08840794,0.0001591,53.2146,178.4579,87.4297,272.6877,6.1887e-05,6.97e-06,0.0,0 STARLINK-4507,1 53403U 22097R   24146.11891881  .00000697  00000-0  61887-4 0  9995,2 53403  53.2146 178.4579 0001591  87.4297 272.6877 15.08840794 99353,6917.878,95.438,540.844,538.642,0.0
53403.0,STARLINK-4507,PAYLOAD,2024-05-25 09:12:47,15.08826643,0.0001319,53.2143,177.2705,87.7172,272.3971,-0.00015368,-2.732e-05,0.0,0 STARLINK-4507,1 53403U 22097R   24146.38388602 -.00002732  00000-0 -15368-3 0  9992,2 53403  53.2143 177.2705 0001319  87.7172 272.3971 15.08826643 99394,6917.921,95.438,540.699,538.874,0.0
53403.0,STARLINK-4507,PAYLOAD,2024-05-26 09:03:35,15.08838153,0.0001423,53.2157,172.8193,109.3962,250.7184,-2.4878e-05,-6.84e-06,0.0,0 STARLINK-4507,1 53403U 22097R   24147.37749057 -.00000684  00000-0 -24878-4 0  9998,2 53403  53.2157 172.8193 0001423 109.3962 250.7184 15.08838153 99547,6917.886,95.438,540.735,538.767,0.0
53403.0,STARLINK-4507,PAYLOAD,2024-05-27 10:29:45,15.08835481,0.0001503,53.215,168.0516,102.8553,257.2607,0.00025629,3.793e-05,0.0,0 STARLINK-4507,1 53403U 22097R   24148.43733297  .00003793  00000-0  25629-3 0  9991,2 53403  53.2150 168.0516 0001503 102.8553 257.2607 15.08835481 99700,6917.894,95.438,540.799,538.719,0.0
53403.0,STARLINK-4507,PAYLOAD,2024-05-27 18:26:41,15.08838555,0.0001437,53.2151,166.5657,95.8963,264.2192,0.00020554,2.985e-05,0.0,0 STARLINK-4507,1 53403U 22097R   24148.76853256  .00002985  00000-0  20554-3 0  9999,2 53403  53.2151 166.5657 0001437  95.8963 264.2192 15.08838555100246,6917.885,95.438,540.744,538.756,0.0
53403.0,STARLINK-4507,PAYLOAD,2024-05-28 08:45:08,15.08850376,0.0001378,53.2148,163.889,100.061,260.0538,0.00026283,3.899e-05,0.0,0 STARLINK-4507,1 53403U 22097R   24149.36468601  .00003899  00000-0  26283-3 0  9992,2 53403  53.2148 163.8890 0001378 100.0610 260.0538 15.08850376 99849,6917.849,95.437,540.667,538.76,0.0
53403.0,STARLINK-4507,PAYLOAD,2024-05-28 19:52:50,15.08851387,0.0001367,53.2146,161.808,99.7757,260.339,0.00021921,3.204e-05,0.0,0 STARLINK-4507,1 53403U 22097R   24149.82836343  .00003204  00000-0  21921-3 0  9999,2 53403  53.2146 161.8080 0001367  99.7757 260.3390 15.08851387100407,6917.846,95.437,540.656,538.765,0.0
53403.0,STARLINK-4507,PAYLOAD,2024-05-29 05:25:09,15.08848548,0.0001403,53.2149,160.0238,97.8145,262.3006,0.00012299,1.67e-05,0.0,0 STARLINK-4507,1 53403U 22097R   24150.22580384  .00001670  00000-0  12299-3 0  9999,2 53403  53.2149 160.0238 0001403  97.8145 262.3006 15.08848548 99977,6917.854,95.437,540.69,538.749,0.0
53403.0,STARLINK-4507,PAYLOAD,2024-05-29 10:11:18,15.08846539,0.0001384,53.215,159.1321,96.8216,263.2934,7.962e-05,9.8e-06,0.0,0 STARLINK-4507,1 53403U 22097R   24150.42452400  .00000980  00000-0  79620-4 0  9993,2 53403  53.2150 159.1321 0001384  96.8216 263.2934 15.08846539100495,6917.86,95.437,540.683,538.768,0.0
53403.0,STARLINK-4507,PAYLOAD,2024-05-30 05:15:56,15.08847961,0.000132,53.2151,155.5621,102.932,257.182,3.9661e-05,3.43e-06,0.0,0 STARLINK-4507,1 53403U 22097R   24151.21940250  .00000343  00000-0  39661-4 0  9990,2 53403  53.2151 155.5621 0001320 102.9320 257.1820 15.08847961100120,6917.856,95.437,540.634,538.808,0.0
53403.0,STARLINK-4507,PAYLOAD,2024-05-30 10:02:05,15.08845606,0.000137,53.2158,154.6713,98.163,261.9518,1.8121e-05,1e-08,0.0,0 STARLINK-4507,1 53403U 22097R   24151.41812321  .00000001  00000-0  18121-4 0  9998,2 53403  53.2158 154.6713 0001370  98.1630 261.9518 15.08845606100642,6917.863,95.437,540.676,538.781,0.0
53403.0,STARLINK-4507,PAYLOAD,2024-05-31 05:06:43,15.08840587,0.0001367,53.2156,151.1028,99.3355,260.7792,5.1903e-05,5.38e-06,0.0,0 STARLINK-4507,1 53403U 22097R   24152.21300406  .00000538  00000-0  51903-4 0  9993,2 53403  53.2156 151.1028 0001367  99.3355 260.7792 15.08840587100277,6917.879,95.438,540.689,538.798,0.0
53403.0,STARLINK-4507,PAYLOAD,2024-05-31 09:52:52,15.08840484,0.0001411,53.2163,150.2105,97.3225,262.7927,4.6795e-05,4.57e-06,0.0,0 STARLINK-4507,1 53403U 22097R   24152.41172410  .00000457  00000-0  46795-4 0  9990,2 53403  53.2163 150.2105 0001411  97.3225 262.7927 15.08840484100790,6917.879,95.438,540.72,538.768,0.0
53403.0,STARLINK-4507,PAYLOAD,2024-06-01 04:57:31,15.08835074,0.000139,53.2166,146.642,92.2013,267.9139,2.8675e-05,1.68e-06,0.0,0 STARLINK-4507,1 53403U 22097R   24153.20660898  .00000168  00000-0  28675-4 0  9996,2 53403  53.2166 146.6420 0001390  92.2013 267.9139 15.08835074100428,6917.895,95.438,540.722,538.799,0.0
53403.0,STARLINK-4507,PAYLOAD,2024-06-01 06:32:54,15.08835475,0.000138,53.2166,146.345,91.1673,268.9477,3.116e-05,2.08e-06,0.0,0 STARLINK-4507,1 53403U 22097R   24153.27284881  .00000208  00000-0  31160-4 0  9995,2 53403  53.2166 146.3450 0001380  91.1673 268.9477 15.08835475100923,6917.894,95.438,540.714,538.805,0.0
53403.0,STARLINK-4507,PAYLOAD,2024-06-02 07:59:04,15.08835651,0.0001346,53.2167,141.5877,90.7116,269.4031,4.0292e-05,3.53e-06,0.0,0 STARLINK-4507,1 53403U 22097R   24154.33269152  .00000353  00000-0  40292-4 0  9994,2 53403  53.2167 141.5877 0001346  90.7116 269.4031 15.08835651100594,6917.894,95.438,540.69,538.828,0.0
53403.0,STARLINK-4507,PAYLOAD,2024-06-03 07:49:51,15.08839574,0.0001323,53.2169,137.1271,89.0101,271.1043,9.4269e-05,1.213e-05,0.0,0 STARLINK-4507,1 53403U 22097R   24155.32629097  .00001213  00000-0  94269-4 0  9991,2 53403  53.2169 137.1271 0001323  89.0101 271.1043 15.08839574101238,6917.882,95.438,540.662,538.831,0.0
53403.0,STARLINK-4507,PAYLOAD,2024-06-03 15:46:46,15.08844686,0.0001322,53.2169,135.64,86.1504,273.9639,0.00011688,1.573e-05,0.0,0 STARLINK-4507,1 53403U 22097R   24155.65748727  .00001573  00000-0  11688-3 0  9991,2 53403  53.2169 135.6400 0001322  86.1504 273.9639 15.08844686100790,6917.866,95.437,540.646,538.817,0.0
53403.0,STARLINK-4507,PAYLOAD,2024-06-03 22:08:19,15.08843645,0.0001271,53.2165,134.4505,83.9228,276.1909,0.00013243,1.821e-05,0.0,0 STARLINK-4507,1 53403U 22097R   24155.92244706  .00001821  00000-0  13243-3 0  9994,2 53403  53.2165 134.4505 0001271  83.9228 276.1909 15.08843645101329,6917.869,95.437,540.614,538.855,0.0
53403.0,STARLINK-4507,PAYLOAD,2024-06-04 02:54:29,15.08838096,0.0001392,53.2169,133.559,85.615,274.5001,6.627e-05,7.67e-06,0.0,0 STARLINK-4507,1 53403U 22097R   24156.12117349  .00000767  00000-0  66270-4 0  9996,2 53403  53.2169 133.5590 0001392  85.6150 274.5001 15.08838096100861,6917.886,95.438,540.714,538.788,0.0
53403.0,STARLINK-4507,PAYLOAD,2024-06-04 07:40:38,15.08843564,0.0001475,53.2169,132.6671,85.6547,274.4614,0.00011388,1.525e-05,0.0,0 STARLINK-4507,1 53403U 22097R   24156.31988920  .00001525  00000-0  11388-3 0  9990,2 53403  53.2169 132.6671 0001475  85.6547 274.4614 15.08843564101386,6917.869,95.437,540.755,538.714,0.0
53403.0,STARLINK-4507,PAYLOAD,2024-06-04 15:37:33,15.08847987,0.0001541,53.2174,131.181,87.2282,272.8887,0.00013995,1.94e-05,0.0,0 STARLINK-4507,1 53403U 22097R   24156.65108553  .00001940  00000-0  13995-3 0  9990,2 53403  53.2174 131.1810 0001541  87.2282 272.8887 15.08847987100947,6917.856,95.437,540.787,538.655,0.0
53403.0,STARLINK-4507,PAYLOAD,2024-06-05 04:20:39,15.08843977,0.000132,53.2166,128.7993,100.1158,259.9983,4.4088e-05,4.14e-06,0.0,0 STARLINK-4507,1 53403U 22097R   24157.18100838  .00000414  00000-0  44088-4 0  9990,2 53403  53.2166 128.7993 0001320 100.1158 259.9983 15.08843977101022,6917.868,95.437,540.646,538.82,0.0
53403.0,STARLINK-4507,PAYLOAD,2024-06-05 05:56:02,15.08844902,0.0001366,53.2166,128.5021,94.4568,265.658,5.4157e-05,5.74e-06,0.0,0 STARLINK-4507,1 53403U 22097R   24157.24724771  .00000574  00000-0  54157-4 0  9990,2 53403  53.2166 128.5021 0001366  94.4568 265.6580 15.08844902101523,6917.865,95.437,540.675,538.785,0.0
53403.0,STARLINK-4507,PAYLOAD,2024-06-05 21:49:53,15.08846352,0.0002259,53.2167,125.5301,85.9794,274.1457,0.00012025,1.626e-05,0.0,0 STARLINK-4507,1 53403U 22097R   24157.90964583  .00001626  00000-0  12025-3 0  9996,2 53403  53.2167 125.5301 0002259  85.9794 274.1457 15.08846352101620,6917.861,95.437,541.289,538.163,0.0
